{
  "norad_id": 56556,
  "name": "STARLINK-5302",
  "history": [
    {
      "epoch": "2026-03-28T18:26:00.963744Z",
      "apogee_km": 486.37398813253367,
      "perigee_km": 484.71435002585076,
      "latitude_deg": -1.611698536880649e-05,
      "longitude_deg": 12.828690244305607,
      "height_km": 485.2529962071904,
      "semi_major_axis_km": 6863.681169079192,
      "eccentricity": 0.0001209,
      "inclination_deg": 43.0023,
      "raan_deg": 115.5165,
      "arg_perigee_deg": 274.7046,
      "mean_anomaly_deg": 85.3667,
      "mean_motion_rev_day": 15.26747121
    }
  ]
}